STARLINK-5474           
1 55665U 23021AP  26068.67698346 -.00000390  00000+0 -24880-4 0  9995
2 55665  70.0010 164.4503 0003285 268.7907  91.2876 14.98330256169276
LEMUR-2-LIA-MARTIN      
1 63248U 25052AQ  26068.70341042  .00006911  00000+0  60828-3 0  9993
2 63248  97.6996 322.6614 0003817 139.7155 220.4350 14.96805944 53795
